start=new Date('2023-04-13T00:00:00.000Z').valueOf();
sats=[{"EPHEMERIS_TYPE":"0","COUNTRY_CODE":"US","FILE":"3886349","PERIAPSIS":"538.458","PERIOD":"95.438","REF_FRAME":"TEME","RA_OF_ASC_NODE":"252.9271","CENTER_NAME":"EARTH","SEMIMAJOR_AXIS":"6917.882","SITE":"AFETR","GP_ID":"229982507","OBJECT_NAME":"STARLINK-4104","OBJECT_ID":"2022-083AH","NORAD_CAT_ID":"53163","MEAN_MOTION":"15.08839472","RCS_SIZE":"LARGE","CLASSIFICATION_TYPE":"U","ARG_OF_PERICENTER":"76.6150","LAUNCH_DATE":"2022-07-17","TLE_LINE1":"1 53163U 22083AH  23102.39923410  .00000195  00000-0  30372-4 0  9996","APOAPSIS":"541.036","MEAN_MOTION_DOT":"0.00000195","TIME_SYSTEM":"UTC","REV_AT_EPOCH":"4099","EPOCH":"2023-04-12T09:34:53.826240","DECAY_DATE":null,"ECCENTRICITY":"0.00018630","MEAN_MOTION_DDOT":"0.0000000000000","BSTAR":"0.00003037200000","TLE_LINE2":"2 53163  53.2145 252.9271 0001863  76.6150 283.5050 15.08839472 40993","ELEMENT_SET_NO":"999","MEAN_ELEMENT_THEORY":"SGP4","OBJECT_TYPE":"PAYLOAD","INCLINATION":"53.2145","MEAN_ANOMALY":"283.5050"},{"RCS_SIZE":"LARGE","CLASSIFICATION_TYPE":"U","MEAN_MOTION":"15.08832546","NORAD_CAT_ID":"53164","OBJECT_ID":"2022-083AJ","OBJECT_NAME":"STARLINK-4116","GP_ID":"229982756","SITE":"AFETR","SEMIMAJOR_AXIS":"6917.903","CENTER_NAME":"EARTH","RA_OF_ASC_NODE":"254.0752","PERIOD":"95.438","REF_FRAME":"TEME","FILE":"3886349","PERIAPSIS":"539.447","COUNTRY_CODE":"US","EPHEMERIS_TYPE":"0","MEAN_ANOMALY":"259.7922","INCLINATION":"53.2172","OBJECT_TYPE":"PAYLOAD","MEAN_ELEMENT_THEORY":"SGP4","ELEMENT_SET_NO":"999","TLE_LINE2":"2 53164  53.2172 254.0752 0000464 100.3122 259.7922 15.08832546 40955","BSTAR":"0.00034257000000","ECCENTRICITY":"0.00004640","MEAN_MOTION_DDOT":"0.0000000000000","DECAY_DATE":null,"EPOCH":"2023-04-12T03:27:52.653888","REV_AT_EPOCH":"4095","TIME_SYSTEM":"UTC","APOAPSIS":"540.089","MEAN_MOTION_DOT":"0.00005167","TLE_LINE1":"1 53164U 22083AJ  23102.14435942  .00005167  00000-0  34257-3 0  9997","LAUNCH_DATE":"2022-07-17","ARG_OF_PERICENTER":"100.3122"},{"NORAD_CAT_ID":"53165","OBJECT_ID":"2022-083AK","OBJECT_NAME":"STARLINK-4090","RCS_SIZE":"LARGE","CLASSIFICATION_TYPE":"U","MEAN_MOTION":"15.08843896","PERIAPSIS":"538.844","FILE":"3886349","COUNTRY_CODE":"US","EPHEMERIS_TYPE":"0","GP_ID":"229983004","SEMIMAJOR_AXIS":"6917.868","SITE":"AFETR","PERIOD":"95.437","RA_OF_ASC_NODE":"252.6494","REF_FRAME":"TEME","CENTER_NAME":"EARTH","MEAN_ELEMENT_THEORY":"SGP4","OBJECT_TYPE":"PAYLOAD","ELEMENT_SET_NO":"999","BSTAR":"-0.00024314000000","TLE_LINE2":"2 53165  53.2206 252.6494 0001286  79.2611 280.8526 15.08843896 41003","MEAN_ANOMALY":"280.8526","INCLINATION":"53.2206","TIME_SYSTEM":"UTC","APOAPSIS":"540.623","MEAN_MOTION_DOT":"-0.00004156","TLE_LINE1":"1 53165U 22083AK  23102.46084321 -.00004156  00000-0 -24314-3 0  9996","ARG_OF_PERICENTER":"79.2611","LAUNCH_DATE":"2022-07-17","MEAN_MOTION_DDOT":"0.0000000000000","ECCENTRICITY":"0.00012860","DECAY_DATE":null,"REV_AT_EPOCH":"4100","EPOCH":"2023-04-12T11:03:36.853344"},{"BSTAR":"-0.00006720200000","TLE_LINE2":"2 53166  53.2145 252.9104 0001032  89.9492 270.1618 15.08839881 40991","ELEMENT_SET_NO":"999","MEAN_ELEMENT_THEORY":"SGP4","OBJECT_TYPE":"PAYLOAD","INCLINATION":"53.2145","MEAN_ANOMALY":"270.1618","ARG_OF_PERICENTER":"89.9492","LAUNCH_DATE":"2022-07-17","TLE_LINE1":"1 53166U 22083AL  23102.40195540 -.00001357  00000-0 -67202-4 0  9991","APOAPSIS":"540.460","MEAN_MOTION_DOT":"-0.00001357","TIME_SYSTEM":"UTC","REV_AT_EPOCH":"4099","EPOCH":"2023-04-12T09:38:48.946560","DECAY_DATE":null,"ECCENTRICITY":"0.00010320","MEAN_MOTION_DDOT":"0.0000000000000","OBJECT_NAME":"STARLINK-4110","OBJECT_ID":"2022-083AL","NORAD_CAT_ID":"53166","MEAN_MOTION":"15.08839881","CLASSIFICATION_TYPE":"U","RCS_SIZE":"LARGE","EPHEMERIS_TYPE":"0","COUNTRY_CODE":"US","PERIAPSIS":"539.032","FILE":"3886349","RA_OF_ASC_NODE":"252.9104","PERIOD":"95.438","REF_FRAME":"TEME","CENTER_NAME":"EARTH","SEMIMAJOR_AXIS":"6917.881","SITE":"AFETR","GP_ID":"229983242"},{"COUNTRY_CODE":"US","EPHEMERIS_TYPE":"0","FILE":"3886349","PERIAPSIS":"538.880","SITE":"AFETR","SEMIMAJOR_AXIS":"6917.882","CENTER_NAME":"EARTH","PERIOD":"95.438","RA_OF_ASC_NODE":"237.8593","REF_FRAME":"TEME","GP_ID":"229982007","OBJECT_ID":"2022-083AM","OBJECT_NAME":"STARLINK-3683","NORAD_CAT_ID":"53167","MEAN_MOTION":"15.08839630","RCS_SIZE":"LARGE","CLASSIFICATION_TYPE":"U","TLE_LINE1":"1 53167U 22083AM  23102.41253871 -.00000347  00000-0 -37294-5 0  9992","LAUNCH_DATE":"2022-07-17","ARG_OF_PERICENTER":"105.7921","TIME_SYSTEM":"UTC","MEAN_MOTION_DOT":"-0.00000347","APOAPSIS":"540.613","DECAY_DATE":null,"EPOCH":"2023-04-12T09:54:03.344544","REV_AT_EPOCH":"4119","ECCENTRICITY":"0.00012520","MEAN_MOTION_DDOT":"0.0000000000000","TLE_LINE2":"2 53167  53.2218 237.8593 0001252 105.7921 254.3210 15.08839630 41192","BSTAR":"-0.00000372940000","OBJECT_TYPE":"PAYLOAD","MEAN_ELEMENT_THEORY":"SGP4","ELEMENT_SET_NO":"999","INCLINATION":"53.2218","MEAN_ANOMALY":"254.3210"},{"APOAPSIS":"540.501","MEAN_MOTION_DOT":"0.00001437","TIME_SYSTEM":"UTC","LAUNCH_DATE":"2022-07-17","ARG_OF_PERICENTER":"98.1922","TLE_LINE1":"1 53168U 22083AN  23102.46452385  .00001437  00000-0  10834-3 0  9997","MEAN_MOTION_DDOT":"0.0000000000000","ECCENTRICITY":"0.00010580","EPOCH":"2023-04-12T11:08:54.860640","REV_AT_EPOCH":"4100","DECAY_DATE":null,"ELEMENT_SET_NO":"999","OBJECT_TYPE":"PAYLOAD","MEAN_ELEMENT_THEORY":"SGP4","TLE_LINE2":"2 53168  53.2178 252.6332 0001058  98.1922 261.9191 15.08832395 41007","BSTAR":"0.00010834000000","MEAN_ANOMALY":"261.9191","INCLINATION":"53.2178","PERIAPSIS":"539.037","FILE":"3886349","EPHEMERIS_TYPE":"0","COUNTRY_CODE":"US","GP_ID":"229982257","CENTER_NAME":"EARTH","PERIOD":"95.438","REF_FRAME":"TEME","RA_OF_ASC_NODE":"252.6332","SITE":"AFETR","SEMIMAJOR_AXIS":"6917.904","NORAD_CAT_ID":"53168","OBJECT_NAME":"STARLINK-4105","OBJECT_ID":"2022-083AN","CLASSIFICATION_TYPE":"U","RCS_SIZE":"LARGE","MEAN_MOTION":"15.08832395"},{"OBJECT_NAME":"STARLINK-4117","OBJECT_ID":"2022-083AP","NORAD_CAT_ID":"53169","MEAN_MOTION":"15.08844176","RCS_SIZE":"LARGE","CLASSIFICATION_TYPE":"U","EPHEMERIS_TYPE":"0","COUNTRY_CODE":"US","PERIAPSIS":"538.938","FILE":"3886349","CENTER_NAME":"EARTH","PERIOD":"95.437","REF_FRAME":"TEME","RA_OF_ASC_NODE":"239.2673","SITE":"AFETR","SEMIMAJOR_AXIS":"6917.868","GP_ID":"229983505","TLE_LINE2":"2 53169  53.2175 239.2673 0001148  88.0193 272.0930 15.08844176 41141","BSTAR":"0.00003655800000","ELEMENT_SET_NO":"999","OBJECT_TYPE":"PAYLOAD","MEAN_ELEMENT_THEORY":"SGP4","INCLINATION":"53.2175","MEAN_ANOMALY":"272.0930","LAUNCH_DATE":"2022-07-17","ARG_OF_PERICENTER":"88.0193","TLE_LINE1":"1 53169U 22083AP  23102.10068814  .00000294  00000-0  36558-4 0  9991","APOAPSIS":"540.527","MEAN_MOTION_DOT":"0.00000294","TIME_SYSTEM":"UTC","EPOCH":"2023-04-12T02:24:59.455296","REV_AT_EPOCH":"4114","DECAY_DATE":null,"ECCENTRICITY":"0.00011480","MEAN_MOTION_DDOT":"0.0000000000000"},{"ARG_OF_PERICENTER":"93.5964","LAUNCH_DATE":"2022-07-17","TLE_LINE1":"1 53170U 22083AQ  23102.55881092  .00000628  00000-0  57514-4 0  9999","APOAPSIS":"540.457","MEAN_MOTION_DOT":"0.00000628","TIME_SYSTEM":"UTC","REV_AT_EPOCH":"4108","EPOCH":"2023-04-12T13:24:41.263488","DECAY_DATE":null,"MEAN_MOTION_DDOT":"0.0000000000000","ECCENTRICITY":"0.00010300","BSTAR":"0.00005751400000","TLE_LINE2":"2 53170  53.2161 247.1621 0001030  93.5964 266.5146 15.08840234 41087","ELEMENT_SET_NO":"999","MEAN_ELEMENT_THEORY":"SGP4","OBJECT_TYPE":"PAYLOAD","INCLINATION":"53.2161","MEAN_ANOMALY":"266.5146","EPHEMERIS_TYPE":"0","COUNTRY_CODE":"US","FILE":"3886349","PERIAPSIS":"539.032","REF_FRAME":"TEME","PERIOD":"95.438","RA_OF_ASC_NODE":"247.1621","CENTER_NAME":"EARTH","SEMIMAJOR_AXIS":"6917.880","SITE":"AFETR","GP_ID":"229983743","OBJECT_NAME":"STARLINK-4095","OBJECT_ID":"2022-083AQ","NORAD_CAT_ID":"53170","MEAN_MOTION":"15.08840234","RCS_SIZE":"LARGE","CLASSIFICATION_TYPE":"U"},{"DECAY_DATE":null,"REV_AT_EPOCH":"4143","EPOCH":"2023-04-12T14:23:35.935008","ECCENTRICITY":"0.00013360","MEAN_MOTION_DDOT":"0.0000000000000","TLE_LINE1":"1 53171U 22083AR  23102.59972147  .00001008  00000-0  81382-4 0  9999","ARG_OF_PERICENTER":"88.5616","LAUNCH_DATE":"2022-07-17","TIME_SYSTEM":"UTC","APOAPSIS":"540.649","MEAN_MOTION_DOT":"0.00001008","INCLINATION":"53.2188","MEAN_ANOMALY":"271.5529","BSTAR":"0.00008138200000","TLE_LINE2":"2 53171  53.2188 221.7899 0001336  88.5616 271.5529 15.08846616 41439","MEAN_ELEMENT_THEORY":"SGP4","OBJECT_TYPE":"PAYLOAD","ELEMENT_SET_NO":"999","SEMIMAJOR_AXIS":"6917.860","SITE":"AFETR","RA_OF_ASC_NODE":"221.7899","PERIOD":"95.437","REF_FRAME":"TEME","CENTER_NAME":"EARTH","GP_ID":"229982508","COUNTRY_CODE":"US","EPHEMERIS_TYPE":"0","FILE":"3886349","PERIAPSIS":"538.801","MEAN_MOTION":"15.08846616","CLASSIFICATION_TYPE":"U","RCS_SIZE":"LARGE","OBJECT_ID":"2022-083AR","OBJECT_NAME":"STARLINK-4052","NORAD_CAT_ID":"53171"},{"NORAD_CAT_ID":"53172","OBJECT_ID":"2022-083AS","OBJECT_NAME":"STARLINK-4299","CLASSIFICATION_TYPE":"U","RCS_SIZE":"LARGE","MEAN_MOTION":"15.08840232","FILE":"3886424","PERIAPSIS":"538.998","COUNTRY_CODE":"US","EPHEMERIS_TYPE":"0","GP_ID":"229987812","SITE":"AFETR","SEMIMAJOR_AXIS":"6917.880","CENTER_NAME":"EARTH","PERIOD":"95.438","RA_OF_ASC_NODE":"246.5617","REF_FRAME":"TEME","OBJECT_TYPE":"PAYLOAD","MEAN_ELEMENT_THEORY":"SGP4","ELEMENT_SET_NO":"999","TLE_LINE2":"2 53172  53.2152 246.5617 0001079  82.7547 277.3567 15.08840232 41734","BSTAR":"0.00004353800000","MEAN_ANOMALY":"277.3567","INCLINATION":"53.2152","TIME_SYSTEM":"UTC","APOAPSIS":"540.491","MEAN_MOTION_DOT":"0.00000405","TLE_LINE1":"1 53172U 22083AS  23102.68392779  .00000405  00000-0  43538-4 0  9998","LAUNCH_DATE":"2022-07-17","ARG_OF_PERICENTER":"82.7547","ECCENTRICITY":"0.00010790","MEAN_MOTION_DDOT":"0.0000000000000","DECAY_DATE":null,"EPOCH":"2023-04-12T16:24:51.361056","REV_AT_EPOCH":"4173"}];
